LEMUR-2-JK0903EM1407    
1 58336U 23174CJ  26063.17273482  .00036741  00000+0  74352-3 0  9997
2 58336  97.3929 151.1400 0006175 133.6956 226.4806 15.46334110129479
LEMUR-2-MJR092620       
1 58340U 23174CN  26063.18666798  .00018764  00000+0  44189-3 0  9999
2 58340  97.4000 151.5390 0008092 131.8138 228.3801 15.41956965129456
LEMUR-2-NIMBUS2000      
1 58899U 24022A   26063.15634973  .00024892  00000+0  69809-3 0  9993
2 58899  97.4229 272.0195 0010443 131.2793 228.9352 15.36520131116127
LEMUR-2-VALHALLA        
1 58900U 24022B   26063.13464551  .00025578  00000+0  72253-3 0  9996
2 58900  97.4227 272.0332 0011062 127.3945 232.8307 15.36282554116122
LEMUR-2-OBA-NI-JESU     
1 58902U 24022D   26063.10365912  .00129068  00000+0  13455-2 0  9993
2 58902  97.4064 280.8802 0005147  87.0472 273.1375 15.64102290116724
LEMUR-2-CAEL            
1 58903U 24022E   26063.09637458  .00024758  00000+0  67486-3 0  9993
2 58903  97.4214 272.7594 0009414 111.6845 248.5403 15.37416773116170
LEMUR-2-JOHNNYTRUONG    
1 59146U 24043BA  26063.17503578  .00049263  00000+0  79840-3 0  9995
2 59146  97.5251 209.0745 0005330 203.2317 156.8695 15.52618873111708
LEMUR-2-TOMATOKECHUP    
1 60471U 24149D   26063.14643586  .00017734  00000+0  54800-3 0  9993
2 60471  97.3857 145.0906 0000967 202.7162 157.4038 15.33582776 86050
LEMUR-2-STELLA          
1 60533U 24149BT  26063.15784870  .00020314  00000+0  12764-2 0  9995
2 60533  97.6789 145.3370 0001621  95.3072 264.8342 15.09284125 84642
LEMUR-2-MARHISYAM       
1 60536U 24149BW  26063.16999149  .00019057  00000+0  12125-2 0  9999
2 60536  97.6930 145.6832 0003239 120.6828 239.4720 15.08833954 84633
LEMUR-2-AHMED-ASRAR     
1 60576U 24149DN  26063.16730453  .00018810  00000+0  11531-2 0  9990
2 60576  97.7044 147.3869 0002133  38.3163 321.8217 15.10200119 84701
LEMUR-2-LLOYD           
1 60577U 24149DP  26063.14844330  .00016576  00000+0  11087-2 0  9992
2 60577  97.6807 144.3779 0005221 137.9600 222.2029 15.07015264 84568
LEMUR-2-SQUIRRELCOMM    
1 60578U 24149DQ  26063.17870034  .00011541  00000+0  79990-3 0  9991
2 60578  97.6756 144.5090 0006183  57.4864 302.6959 15.05770912 84590
LEMUR-2-SIERRINI        
1 60579U 24149DR  26063.17096647  .00019276  00000+0  12374-2 0  9997
2 60579  97.6891 145.4774 0006136 166.6878 193.4513 15.08495622 84616
LEMUR-2-WILSON          
1 62694U 25009CP  26063.14151999  .00003675  00000+0  34437-3 0  9993
2 62694  97.7082 143.4683 0003845  47.7630 312.3916 14.94638269 61664
LEMUR-2-STAR-FOX        
1 62696U 25009CR  26063.14553017  .00015859  00000+0  12534-2 0  9992
2 62696  97.7063 145.6357 0002213 164.7021 195.4270 15.00744054 61794
