[{"OBJECT_NAME":"LEMUR-2-JK0903EM1407","OBJECT_ID":"2023-174CJ","EPOCH":"2026-03-04T04:08:44.288448","MEAN_MOTION":15.4633411,"ECCENTRICITY":0.0006175,"INCLINATION":97.3929,"RA_OF_ASC_NODE":151.14,"ARG_OF_PERICENTER":133.6956,"MEAN_ANOMALY":226.4806,"EPHEMERIS_TYPE":0,"CLASSIFICATION_TYPE":"U","NORAD_CAT_ID":58336,"ELEMENT_SET_NO":999,"REV_AT_EPOCH":12947,"BSTAR":0.00074352,"MEAN_MOTION_DOT":0.00036741,"MEAN_MOTION_DDOT":0},{"OBJECT_NAME":"LEMUR-2-MJR092620","OBJECT_ID":"2023-174CN","EPOCH":"2026-03-04T04:28:48.113472","MEAN_MOTION":15.41956965,"ECCENTRICITY":0.0008092,"INCLINATION":97.4,"RA_OF_ASC_NODE":151.539,"ARG_OF_PERICENTER":131.8138,"MEAN_ANOMALY":228.3801,"EPHEMERIS_TYPE":0,"CLASSIFICATION_TYPE":"U","NORAD_CAT_ID":58340,"ELEMENT_SET_NO":999,"REV_AT_EPOCH":12945,"BSTAR":0.00044189,"MEAN_MOTION_DOT":0.00018764,"MEAN_MOTION_DDOT":0},{"OBJECT_NAME":"LEMUR-2-NIMBUS2000","OBJECT_ID":"2024-022A","EPOCH":"2026-03-04T03:45:08.616672","MEAN_MOTION":15.36520131,"ECCENTRICITY":0.0010443,"INCLINATION":97.4229,"RA_OF_ASC_NODE":272.0195,"ARG_OF_PERICENTER":131.2793,"MEAN_ANOMALY":228.9352,"EPHEMERIS_TYPE":0,"CLASSIFICATION_TYPE":"U","NORAD_CAT_ID":58899,"ELEMENT_SET_NO":999,"REV_AT_EPOCH":11612,"BSTAR":0.00069809,"MEAN_MOTION_DOT":0.00024892,"MEAN_MOTION_DDOT":0},{"OBJECT_NAME":"LEMUR-2-VALHALLA","OBJECT_ID":"2024-022B","EPOCH":"2026-03-04T03:13:53.372064","MEAN_MOTION":15.36282554,"ECCENTRICITY":0.0011062,"INCLINATION":97.4227,"RA_OF_ASC_NODE":272.0332,"ARG_OF_PERICENTER":127.3945,"MEAN_ANOMALY":232.8307,"EPHEMERIS_TYPE":0,"CLASSIFICATION_TYPE":"U","NORAD_CAT_ID":58900,"ELEMENT_SET_NO":999,"REV_AT_EPOCH":11612,"BSTAR":0.00072253,"MEAN_MOTION_DOT":0.00025578,"MEAN_MOTION_DDOT":0},{"OBJECT_NAME":"LEMUR-2-OBA-NI-JESU","OBJECT_ID":"2024-022D","EPOCH":"2026-03-04T02:29:16.147968","MEAN_MOTION":15.6410229,"ECCENTRICITY":0.0005147,"INCLINATION":97.4064,"RA_OF_ASC_NODE":280.8802,"ARG_OF_PERICENTER":87.0472,"MEAN_ANOMALY":273.1375,"EPHEMERIS_TYPE":0,"CLASSIFICATION_TYPE":"U","NORAD_CAT_ID":58902,"ELEMENT_SET_NO":999,"REV_AT_EPOCH":11672,"BSTAR":0.0013455,"MEAN_MOTION_DOT":0.00129068,"MEAN_MOTION_DDOT":0},{"OBJECT_NAME":"LEMUR-2-CAEL","OBJECT_ID":"2024-022E","EPOCH":"2026-03-04T02:18:46.763712","MEAN_MOTION":15.37416773,"ECCENTRICITY":0.0009414,"INCLINATION":97.4214,"RA_OF_ASC_NODE":272.7594,"ARG_OF_PERICENTER":111.6845,"MEAN_ANOMALY":248.5403,"EPHEMERIS_TYPE":0,"CLASSIFICATION_TYPE":"U","NORAD_CAT_ID":58903,"ELEMENT_SET_NO":999,"REV_AT_EPOCH":11617,"BSTAR":0.00067486,"MEAN_MOTION_DOT":0.00024758,"MEAN_MOTION_DDOT":0},{"OBJECT_NAME":"LEMUR-2-JOHNNYTRUONG","OBJECT_ID":"2024-043BA","EPOCH":"2026-03-04T04:12:03.091392","MEAN_MOTION":15.52618873,"ECCENTRICITY":0.000533,"INCLINATION":97.5251,"RA_OF_ASC_NODE":209.0745,"ARG_OF_PERICENTER":203.2317,"MEAN_ANOMALY":156.8695,"EPHEMERIS_TYPE":0,"CLASSIFICATION_TYPE":"U","NORAD_CAT_ID":59146,"ELEMENT_SET_NO":999,"REV_AT_EPOCH":11170,"BSTAR":0.0007984,"MEAN_MOTION_DOT":0.00049263,"MEAN_MOTION_DDOT":0},{"OBJECT_NAME":"LEMUR-2-TOMATOKECHUP","OBJECT_ID":"2024-149D","EPOCH":"2026-03-04T03:30:52.058304","MEAN_MOTION":15.33582776,"ECCENTRICITY":9.67e-5,"INCLINATION":97.3857,"RA_OF_ASC_NODE":145.0906,"ARG_OF_PERICENTER":202.7162,"MEAN_ANOMALY":157.4038,"EPHEMERIS_TYPE":0,"CLASSIFICATION_TYPE":"U","NORAD_CAT_ID":60471,"ELEMENT_SET_NO":999,"REV_AT_EPOCH":8605,"BSTAR":0.000548,"MEAN_MOTION_DOT":0.00017734,"MEAN_MOTION_DDOT":0},{"OBJECT_NAME":"LEMUR-2-STELLA","OBJECT_ID":"2024-149BT","EPOCH":"2026-03-04T03:47:18.127680","MEAN_MOTION":15.09284125,"ECCENTRICITY":0.0001621,"INCLINATION":97.6789,"RA_OF_ASC_NODE":145.337,"ARG_OF_PERICENTER":95.3072,"MEAN_ANOMALY":264.8342,"EPHEMERIS_TYPE":0,"CLASSIFICATION_TYPE":"U","NORAD_CAT_ID":60533,"ELEMENT_SET_NO":999,"REV_AT_EPOCH":8464,"BSTAR":0.0012764,"MEAN_MOTION_DOT":0.00020314,"MEAN_MOTION_DDOT":0},{"OBJECT_NAME":"LEMUR-2-MARHISYAM","OBJECT_ID":"2024-149BW","EPOCH":"2026-03-04T04:04:47.264736","MEAN_MOTION":15.08833954,"ECCENTRICITY":0.0003239,"INCLINATION":97.693,"RA_OF_ASC_NODE":145.6832,"ARG_OF_PERICENTER":120.6828,"MEAN_ANOMALY":239.472,"EPHEMERIS_TYPE":0,"CLASSIFICATION_TYPE":"U","NORAD_CAT_ID":60536,"ELEMENT_SET_NO":999,"REV_AT_EPOCH":8463,"BSTAR":0.0012125,"MEAN_MOTION_DOT":0.00019057,"MEAN_MOTION_DDOT":0},{"OBJECT_NAME":"LEMUR-2-AHMED-ASRAR","OBJECT_ID":"2024-149DN","EPOCH":"2026-03-04T04:00:55.111392","MEAN_MOTION":15.10200119,"ECCENTRICITY":0.0002133,"INCLINATION":97.7044,"RA_OF_ASC_NODE":147.3869,"ARG_OF_PERICENTER":38.3163,"MEAN_ANOMALY":321.8217,"EPHEMERIS_TYPE":0,"CLASSIFICATION_TYPE":"U","NORAD_CAT_ID":60576,"ELEMENT_SET_NO":999,"REV_AT_EPOCH":8470,"BSTAR":0.0011531,"MEAN_MOTION_DOT":0.0001881,"MEAN_MOTION_DDOT":0},{"OBJECT_NAME":"LEMUR-2-LLOYD","OBJECT_ID":"2024-149DP","EPOCH":"2026-03-04T03:33:45.501120","MEAN_MOTION":15.07015264,"ECCENTRICITY":0.0005221,"INCLINATION":97.6807,"RA_OF_ASC_NODE":144.3779,"ARG_OF_PERICENTER":137.96,"MEAN_ANOMALY":222.2029,"EPHEMERIS_TYPE":0,"CLASSIFICATION_TYPE":"U","NORAD_CAT_ID":60577,"ELEMENT_SET_NO":999,"REV_AT_EPOCH":8456,"BSTAR":0.0011087,"MEAN_MOTION_DOT":0.00016576,"MEAN_MOTION_DDOT":0},{"OBJECT_NAME":"LEMUR-2-SQUIRRELCOMM","OBJECT_ID":"2024-149DQ","EPOCH":"2026-03-04T04:17:19.709376","MEAN_MOTION":15.05770912,"ECCENTRICITY":0.0006183,"INCLINATION":97.6756,"RA_OF_ASC_NODE":144.509,"ARG_OF_PERICENTER":57.4864,"MEAN_ANOMALY":302.6959,"EPHEMERIS_TYPE":0,"CLASSIFICATION_TYPE":"U","NORAD_CAT_ID":60578,"ELEMENT_SET_NO":999,"REV_AT_EPOCH":8459,"BSTAR":0.0007999,"MEAN_MOTION_DOT":0.00011541,"MEAN_MOTION_DDOT":0},{"OBJECT_NAME":"LEMUR-2-SIERRINI","OBJECT_ID":"2024-149DR","EPOCH":"2026-03-04T04:06:11.503008","MEAN_MOTION":15.08495622,"ECCENTRICITY":0.0006136,"INCLINATION":97.6891,"RA_OF_ASC_NODE":145.4774,"ARG_OF_PERICENTER":166.6878,"MEAN_ANOMALY":193.4513,"EPHEMERIS_TYPE":0,"CLASSIFICATION_TYPE":"U","NORAD_CAT_ID":60579,"ELEMENT_SET_NO":999,"REV_AT_EPOCH":8461,"BSTAR":0.0012374,"MEAN_MOTION_DOT":0.00019276,"MEAN_MOTION_DDOT":0},{"OBJECT_NAME":"LEMUR-2-WILSON","OBJECT_ID":"2025-009CP","EPOCH":"2026-03-04T03:23:47.327136","MEAN_MOTION":14.94638269,"ECCENTRICITY":0.0003845,"INCLINATION":97.7082,"RA_OF_ASC_NODE":143.4683,"ARG_OF_PERICENTER":47.763,"MEAN_ANOMALY":312.3916,"EPHEMERIS_TYPE":0,"CLASSIFICATION_TYPE":"U","NORAD_CAT_ID":62694,"ELEMENT_SET_NO":999,"REV_AT_EPOCH":6166,"BSTAR":0.00034437,"MEAN_MOTION_DOT":3.675e-5,"MEAN_MOTION_DDOT":0},{"OBJECT_NAME":"LEMUR-2-STAR-FOX","OBJECT_ID":"2025-009CR","EPOCH":"2026-03-04T03:29:33.806688","MEAN_MOTION":15.00744054,"ECCENTRICITY":0.0002213,"INCLINATION":97.7063,"RA_OF_ASC_NODE":145.6357,"ARG_OF_PERICENTER":164.7021,"MEAN_ANOMALY":195.427,"EPHEMERIS_TYPE":0,"CLASSIFICATION_TYPE":"U","NORAD_CAT_ID":62696,"ELEMENT_SET_NO":999,"REV_AT_EPOCH":6179,"BSTAR":0.0012534,"MEAN_MOTION_DOT":0.00015859,"MEAN_MOTION_DDOT":0}]
